NINGXIA-1 6             
1 49018U 21064A   23118.28890316  .00001880  00000+0  11711-2 0  9996
2 49018  45.0031   2.3708 0007484 152.8533 307.5716 14.08145853 92691
NINGXIA-1 7             
1 49019U 21064B   23118.27637828 -.00000380  00000+0 -14418-3 0  9997
2 49019  45.0067   2.4365 0006938 159.3369 299.4719 14.08146525 92704
NINGXIA-1 8             
1 49020U 21064C   23118.09856253  .00000020  00000+0  88412-4 0  9999
2 49020  44.9992   2.6335 0007014 164.3707 195.7356 14.08138229 92682
NINGXIA-1 9             
1 49021U 21064D   23118.22735746 -.00000001  00000+0  76023-4 0  9993
2 49021  45.0057   2.3178 0007624 175.4003 184.6895 14.08147819 92701
NINGXIA-1 10            
1 49022U 21064E   23118.30291764 -.00000132  00000+0  00000+0 0  9992
2 49022  45.0026   1.6762 0008000 183.0664 280.9575 14.08138450 92713
YAOGAN-30 AD            
1 49026U 21065A   23118.11790906  .00001387  00000+0  13649-3 0  9997
2 49026  34.9968   1.3084 0006801 299.3764  60.7195 14.92107979 96757
TIANQI-15               
1 49027U 21065B   23118.04921592  .00005919  00000+0  54626-3 0  9992
2 49027  35.0059 352.7608 0006505  98.8469 261.2920 14.94030453 96850
YAOGAN-30 AE            
1 49028U 21065C   23118.09583948  .00004115  00000+0  39982-3 0  9992
2 49028  34.9981   1.1431 0001418 297.7927  62.2630 14.92100976 96739
YAOGAN-30 AF            
1 49029U 21065D   23118.14191465  .00004044  00000+0  39296-3 0  9997
2 49029  34.9998   0.6312 0005118  14.3630 345.7217 14.92099295 96770
ISS (NAUKA)             
1 49044U 21066A   23116.75985888  .00025496  00000+0  44778-3 0  9995
2 49044  51.6396 223.3971 0006085 243.6113 220.6572 15.50331714393817
TIANHUI 1-04            
1 49049U 21067A   23117.37916397  .00007034  00000+0  29951-3 0  9993
2 49049  97.4008 193.9820 0002032  68.9620  57.8970 15.23286602 96990
MONOLITH                
1 49052U 21068A   23117.95410914  .00006269  00000+0  62740-3 0  9998
2 49052  37.0217 199.5460 0006225 293.5109  66.4733 14.91143979 95113
STAR ONE D2             
1 49055U 21069A   23116.59907152 -.00000267  00000+0  00000+0 0  9996
2 49055   0.0098 196.8359 0001288 222.8819 300.2926  1.00272263  6409
EUTELSAT QUANTUM        
1 49056U 21069B   23118.02930861  .00000125  00000+0  00000+0 0  9992
2 49056   0.0355  56.8469 0001610 326.8831 250.2693  1.00270164  6426
KL-BETA A               
1 49059U 21070A   23118.42235020  .00000121  00000+0  77633-4 0  9993
2 49059  89.0010 344.4194 0008903  85.4760  86.7201 13.96417810 88208
KL-BETA B               
1 49060U 21070B   23118.42112084  .00000014  00000+0  00000+0 0  9999
2 49060  88.9998 344.4014 0007217  92.7987  79.5434 13.96416398 88201
CHINASAT 2E (ZX 2E)     
1 49062U 21071A   23117.29632648 -.00000292  00000+0  00000+0 0  9998
2 49062   0.0824  69.2318 0000510   6.9315 343.4913  1.00267244  6555
BRO-4                   
1 49066U 21073A   23118.26766359  .00016251  00000+0  84358-3 0  9992
2 49066  97.4902 191.5433 0023451 279.1747 152.2354 15.15960927 93465
RADCUBE                 
1 49067U 21073B   23118.20187791  .00018412  00000+0  88478-3 0  9992
2 49067  97.4858 191.5318 0020394 286.4551  73.4442 15.18692253 93442
SUNSTORM                
1 49068U 21073C   23118.12035936  .00019021  00000+0  93312-3 0  9997
2 49068  97.4880 191.2666 0020243 287.9936  71.9092 15.17970443 93417
LEDSAT                  
1 49069U 21073D   23118.14591471  .00009140  00000+0  51384-3 0  9995
2 49069  97.4845 189.8940 0023042 294.0991  65.7830 15.13283244 93331
PLEIADES NEO 4          
1 49070U 21073E   23118.19339363  .00000041  00000+0  11785-4 0  9995
2 49070  97.8922 193.3996 0001020 108.6885 251.4431 14.81673939 91672
TIANHUI 2-02A           
1 49071U 21074A   23117.22753492  .00002848  00000+0  14848-3 0  9992
2 49071  97.4624 121.1031 0001833 102.4152  30.1320 15.16774610 93429
TIANHUI 2-02B           
1 49072U 21074B   23118.07659181  .00000581  00000+0  32966-4 0  9991
2 49072  97.4632 121.9362 0001976 138.1570 307.5063 15.16756061 93540
ONEWEB-0285             
1 49075U 21075A   23117.30399501 -.00000293  00000+0 -85089-3 0  9992
2 49075  87.9029 218.5147 0002044 104.4279 255.7077 13.12439859 85750
ONEWEB-0286             
1 49076U 21075B   23117.34847915  .00000502  00000+0  13588-2 0  9999
2 49076  87.9032 218.5092 0001473 109.3114 250.8174 13.12445952 85116
ONEWEB-0287             
1 49077U 21075C   23118.21638034  .00000098  00000+0  22054-3 0  9996
2 49077  87.9173 233.5278 0001857  87.6238 272.5106 13.17647463 83689
ONEWEB-0288             
1 49078U 21075D   23118.24847769  .00000237  00000+0  62209-3 0  9998
2 49078  87.9036 218.3336 0001815 100.8166 259.3167 13.12446627 85862
ONEWEB-0289             
1 49079U 21075E   23118.24318290  .00000073  00000+0  15509-3 0  9990
2 49079  87.9170 233.4951 0001946 106.2114 253.9232 13.17650786 84265
ONEWEB-0290             
1 49080U 21075F   23118.22532407  .00000079  00000+0  16992-3 0  9991
2 49080  87.9171 233.5198 0002144  93.4409 266.6968 13.17650240 83684
ONEWEB-0291             
1 49081U 21075G   23118.28562353  .00000060  00000+0  12237-3 0  9999
2 49081  87.9173 233.4938 0001749  96.5060 263.6271 13.17649068 83696
ONEWEB-0293             
1 49082U 21075H   23117.85457340  .00000052  00000+0  10128-3 0  9999
2 49082  87.9172 233.5683 0001935  93.2720 266.8633 13.17649145 83657
ONEWEB-0294             
1 49083U 21075J   23118.25380133  .00000311  00000+0  83029-3 0  9998
2 49083  87.9035 218.3331 0002317  94.5893 265.5500 13.12442978 85254
ONEWEB-0295             
1 49084U 21075K   23117.85680955  .00000042  00000+0  75126-4 0  9990
2 49084  87.9177 233.5311 0001529  83.8538 276.2768 13.17650316 83592
ONEWEB-0296             
1 49085U 21075L   23118.23791311 -.00000148  00000+0 -44570-3 0  9990
2 49085  87.9037 218.3337 0001553  72.1938 287.9359 13.12444205 85252
ONEWEB-0297             
1 49086U 21075M   23118.26756113  .00000499  00000+0  13527-2 0  9999
2 49086  87.9025 218.3184 0001851 116.4994 243.6324 13.12445125 85865
ONEWEB-0298             
1 49087U 21075N   23117.85904451  .00000061  00000+0  12475-3 0  9991
2 49087  87.9173 233.5537 0001543 106.3224 253.8078 13.17649290 83651
ONEWEB-0299             
1 49088U 21075P   23118.24094274  .00000084  00000+0  18415-3 0  9994
2 49088  87.9169 233.5193 0001587  97.3421 262.7891 13.17647683 83668
ONEWEB-0300             
1 49089U 21075Q   23118.25909751  .00000449  00000+0  12140-2 0  9994
2 49089  87.9036 218.3274 0001858 111.9063 248.2263 13.12445341 85889
ONEWEB-0301             
1 49090U 21075R   23118.24425007 -.00000327  00000+0 -94407-3 0  9996
2 49090  87.9033 218.3348 0002157 112.3725 247.7633 13.12443544 85241
ONEWEB-0302             
1 49091U 21075S   23118.23261063 -.00000204  00000+0 -60246-3 0  9994
2 49091  87.9033 218.3379 0001852  96.7973 263.3366 13.12445534 85234
ONEWEB-0304             
1 49092U 21075T   23117.30737353  .00000104  00000+0  23521-3 0  9994
2 49092  87.9174 233.6696 0001660  98.9251 261.2068 13.17651551 82543
ONEWEB-0305             
1 49093U 21075U   23117.37213605  .00000069  00000+0  14418-3 0  9996
2 49093  87.9173 233.6926 0001426  93.0591 267.0704 13.17652585 82585
ONEWEB-0308             
1 49094U 21075V   23118.22729905 -.00000290  00000+0 -84231-3 0  9995
2 49094  87.9037 218.3374 0001954 106.7165 253.4178 13.12439590 85241
ONEWEB-0309             
1 49095U 21075W   23117.30290181  .00000040  00000+0  69184-4 0  9995
2 49095  87.9171 233.7123 0002141  89.2441 270.8936 13.17651937 83536
ONEWEB-0310             
1 49096U 21075X   23118.23895753 -.00000212  00000+0 -62599-3 0  9990
2 49096  87.9028 218.3229 0002205  97.4575 262.6804 13.12445122 85878
ONEWEB-0311             
1 49097U 21075Y   23117.76523368  .00000544  00000+0  13666-2 0  9994
2 49097  87.9178 233.6253 0001483 109.2580 250.8712 13.17650751 83659
ONEWEB-0312             
1 49098U 21075Z   23117.85234595  .00000049  00000+0  93032-4 0  9993
2 49098  87.9172 233.5729 0001787  94.4609 265.6727 13.17649641 83628
ONEWEB-0313             
1 49099U 21075AA  23118.28786922  .00002478  00000+0  63478-2 0  9995
2 49099  87.9178 233.5097 0002014  88.8781 271.2581 13.17636855 83696
ONEWEB-0314             
1 49100U 21075AB  23118.28115765  .00000040  00000+0  69888-4 0  9995
2 49100  87.9171 233.5158 0001536  85.5711 274.5596 13.17651043 83659
ONEWEB-0315             
1 49101U 21075AC  23117.29552728 -.00000359  00000+0 -10335-2 0  9996
2 49101  87.9032 218.5150 0001907 115.0173 245.1154 13.12441474 85739
ONEWEB-0316             
1 49102U 21075AD  23118.27202044 -.00000314  00000+0 -82888-3 0  9993
2 49102  87.9301 203.2212 0001680 103.3780 256.7540 13.18686141 87198
ONEWEB-0317             
1 49103U 21075AE  23118.28239309  .00000140  00000+0  35377-3 0  9995
2 49103  87.9033 218.3251 0002144  96.2808 263.8565 13.12442798 85879
ONEWEB-0318             
1 49104U 21075AF  23117.96640714 -.00000288  00000+0 -76228-3 0  9991
2 49104  87.9295 203.2684 0001664 108.6006 251.5307 13.18685997 87109
ONEWEB-0319             
1 49105U 21075AG  23118.22306686  .00000113  00000+0  25675-3 0  9994
2 49105  87.9172 233.4949 0001095 108.0073 252.1178 13.17651167 83682
ONEWEB-0323             
1 49106U 21075AH  23117.96790962  .00000288  00000+0  76623-3 0  9991
2 49106  87.9031 218.3791 0001681 103.8008 256.3308 13.12442111 85209
ONEWEB-0329             
1 49107U 21075AJ  23117.84787801  .00000004  00000+0 -22814-4 0  9998
2 49107  87.9172 233.5701 0001662  95.7644 264.3677 13.17649653 83616
ONEWEB-0330             
1 49108U 21075AK  23117.85009030  .00000033  00000+0  50890-4 0  9997
2 49108  87.9165 233.5873 0001813  89.8991 270.2348 13.17652380 83652
RSW-01                  
1 49112U 21076A   23118.23767226  .00000073  00000+0  10158-3 0  9990
2 49112  86.4149 207.2878 0016336  38.7450 321.4863 13.42744010 82093
